0 SL-24 R/B
1 35688U 09041H   13282.26717524  .00000002  00000-0  22210-4 0  6961
2 35688 098.1123 332.0032 0430021 341.3950 055.8494 13.74078608210433
0 SL-24 R/B
1 35688U 09041H   13287.15104578  .00000016  00000-0  29971-4 0  6981
2 35688 098.1111 336.1683 0429776 328.0755 094.8292 13.74078673211103
0 SL-24 R/B
1 35688U 09041H   13289.25804138  .00000023  00000-0  33924-4 0  6995
2 35688 098.1105 337.9651 0429707 322.3240 077.4836 13.74079153211396
0 SL-24 R/B
1 35688U 09041H   13291.45962457  .00000008  00000-0  26365-4 0  7006
2 35688 098.1099 339.8423 0429621 316.3144 168.0364 13.74079507211696
0 SL-24 R/B
1 35688U 09041H   13293.79134108  .00000012  00000-0  28377-4 0  7010
2 35688 098.1098 341.8303 0429597 309.9449 182.3261 13.74079743212017
0 SL-24 R/B
1 35688U 09041H   13296.17703578  .00000004  00000-0  23886-4 0  7020
2 35688 098.1097 343.8642 0429529 303.4294 103.6299 13.74080073212347
